{
  "type": "FeatureCollection",
  "features": [
    {
      "type": "Feature",
      "properties": {
        "norad_id": 36255,
        "name": "FENGYUN 1C DEB",
        "group": "fengyun-1c-debris",
        "lat": -48.028921318831735,
        "lon": -76.21394156125801,
        "alt_km": 820.3131591510228,
        "timestamp": "2025-12-17T23:38:07.142164+00:00",
        "meta_object_name": "FENGYUN 1C DEB",
        "meta_object_id": "1999-025DWG",
        "meta_epoch": "2025-12-16T14:59:38.080320",
        "meta_mean_motion": 14.36585765,
        "meta_eccentricity": 0.00640168,
        "meta_inclination": 99.4346,
        "meta_ra_of_asc_node": 271.6446,
        "meta_arg_of_pericenter": 152.0698,
        "meta_mean_anomaly": 328.9861,
        "meta_ephemeris_type": 0,
        "meta_classification_type": "U",
        "meta_norad_cat_id": 36255,
        "meta_element_set_no": 999,
        "meta_rev_at_epoch": 64066,
        "meta_bstar": 0.00053957267,
        "meta_mean_motion_dot": 1.573e-05,
        "meta_mean_motion_ddot": 0,
        "tle_line1": "1 36255U 99025DWG 25350.62474630  .00001573  00000+0  53957-3 0  9990",
        "tle_line2": "2 36255  99.4346 271.6446 0064016 152.0698 328.9861 14.36585765640665"
      },
      "geometry": {
        "type": "Point",
        "coordinates": [
          -76.21394156125801,
          -48.028921318831735
        ]
      }
    },
    {
      "type": "Feature",
      "properties": {
        "norad_id": 36258,
        "name": "FENGYUN 1C DEB",
        "group": "fengyun-1c-debris",
        "lat": 70.7632030589124,
        "lon": -5.193711991821921,
        "alt_km": 539.7802156010202,
        "timestamp": "2025-12-17T23:38:07.142175+00:00",
        "meta_object_name": "FENGYUN 1C DEB",
        "meta_object_id": "1999-025DWK",
        "meta_epoch": "2025-12-16T19:37:44.723136",
        "meta_mean_motion": 14.74871469,
        "meta_eccentricity": 0.01736087,
        "meta_inclination": 99.087,
        "meta_ra_of_asc_node": 20.7971,
        "meta_arg_of_pericenter": 113.0476,
        "meta_mean_anomaly": 248.914,
        "meta_ephemeris_type": 0,
        "meta_classification_type": "U",
        "meta_norad_cat_id": 36258,
        "meta_element_set_no": 999,
        "meta_rev_at_epoch": 90882,
        "meta_bstar": 0.00022588911,
        "meta_mean_motion_dot": 1.859e-05,
        "meta_mean_motion_ddot": 0,
        "tle_line1": "1 36258U 99025DWK 25350.81787874  .00001859  00000+0  22589-3 0  9995",
        "tle_line2": "2 36258  99.0870  20.7971 0173608 113.0476 248.9140 14.74871469908828"
      },
      "geometry": {
        "type": "Point",
        "coordinates": [
          -5.193711991821921,
          70.7632030589124
        ]
      }
    },
    {
      "type": "Feature",
      "properties": {
        "norad_id": 36260,
        "name": "FENGYUN 1C DEB",
        "group": "fengyun-1c-debris",
        "lat": -3.821280316610797,
        "lon": 173.4300920422463,
        "alt_km": 837.3882420891014,
        "timestamp": "2025-12-17T23:38:07.142185+00:00",
        "meta_object_name": "FENGYUN 1C DEB",
        "meta_object_id": "1999-025DWM",
        "meta_epoch": "2025-12-17T05:48:08.840736",
        "meta_mean_motion": 14.15376352,
        "meta_eccentricity": 0.00150973,
        "meta_inclination": 98.6612,
        "meta_ra_of_asc_node": 353.2918,
        "meta_arg_of_pericenter": 235.733,
        "meta_mean_anomaly": 124.2415,
        "meta_ephemeris_type": 0,
        "meta_classification_type": "U",
        "meta_norad_cat_id": 36260,
        "meta_element_set_no": 999,
        "meta_rev_at_epoch": 87872,
        "meta_bstar": 0.00016667639,
        "meta_mean_motion_dot": 2.82e-06,
        "meta_mean_motion_ddot": 0,
        "tle_line1": "1 36260U 99025DWM 25351.24176899  .00000282  00000+0  16668-3 0  9995",
        "tle_line2": "2 36260  98.6612 353.2918 0015097 235.7330 124.2415 14.15376352878725"
      },
      "geometry": {
        "type": "Point",
        "coordinates": [
          173.4300920422463,
          -3.821280316610797
        ]
      }
    },
    {
      "type": "Feature",
      "properties": {
        "norad_id": 36261,
        "name": "FENGYUN 1C DEB",
        "group": "fengyun-1c-debris",
        "lat": 64.87330714796114,
        "lon": -140.51019246138645,
        "alt_km": 817.6017861028868,
        "timestamp": "2025-12-17T23:38:07.142196+00:00",
        "meta_object_name": "FENGYUN 1C DEB",
        "meta_object_id": "1999-025DWN",
        "meta_epoch": "2025-12-13T22:57:12.812256",
        "meta_mean_motion": 13.45480991,
        "meta_eccentricity": 0.03556009,
        "meta_inclination": 101.3652,
        "meta_ra_of_asc_node": 240.3219,
        "meta_arg_of_pericenter": 72.4151,
        "meta_mean_anomaly": 291.5485,
        "meta_ephemeris_type": 0,
        "meta_classification_type": "U",
        "meta_norad_cat_id": 36261,
        "meta_element_set_no": 999,
        "meta_rev_at_epoch": 84449,
        "meta_bstar": 0.00068349955,
        "meta_mean_motion_dot": 5.4e-06,
        "meta_mean_motion_ddot": 0,
        "tle_line1": "1 36261U 99025DWN 25347.95639829  .00000540  00000+0  68350-3 0  9998",
        "tle_line2": "2 36261 101.3652 240.3219 0355600  72.4151 291.5485 13.45480991844495"
      },
      "geometry": {
        "type": "Point",
        "coordinates": [
          -140.51019246138645,
          64.87330714796114
        ]
      }
    },
    {
      "type": "Feature",
      "properties": {
        "norad_id": 36262,
        "name": "FENGYUN 1C DEB",
        "group": "fengyun-1c-debris",
        "lat": -31.939863413721945,
        "lon": 46.98055251042489,
        "alt_km": 776.1315311998942,
        "timestamp": "2025-12-17T23:38:07.142206+00:00",
        "meta_object_name": "FENGYUN 1C DEB",
        "meta_object_id": "1999-025DWP",
        "meta_epoch": "2025-12-16T21:24:39.631968",
        "meta_mean_motion": 14.2781161,
        "meta_eccentricity": 0.00597022,
        "meta_inclination": 98.9611,
        "meta_ra_of_asc_node": 231.5054,
        "meta_arg_of_pericenter": 263.2226,
        "meta_mean_anomaly": 96.2158,
        "meta_ephemeris_type": 0,
        "meta_classification_type": "U",
        "meta_norad_cat_id": 36262,
        "meta_element_set_no": 999,
        "meta_rev_at_epoch": 89556,
        "meta_bstar": 0.00025429825,
        "meta_mean_motion_dot": 5.93e-06,
        "meta_mean_motion_ddot": 0,
        "tle_line1": "1 36262U 99025DWP 25350.89212537  .00000593  00000+0  25430-3 0  9999",
        "tle_line2": "2 36262  98.9611 231.5054 0059702 263.2226  96.2158 14.27811610895566"
      },
      "geometry": {
        "type": "Point",
        "coordinates": [
          46.98055251042489,
          -31.939863413721945
        ]
      }
    },
    {
      "type": "Feature",
      "properties": {
        "norad_id": 36263,
        "name": "FENGYUN 1C DEB",
        "group": "fengyun-1c-debris",
        "lat": 0.9445396504124903,
        "lon": -126.79763303210012,
        "alt_km": 751.8166991613289,
        "timestamp": "2025-12-17T23:38:07.142216+00:00",
        "meta_object_name": "FENGYUN 1C DEB",
        "meta_object_id": "1999-025DWQ",
        "meta_epoch": "2025-12-14T02:36:43.363008",
        "meta_mean_motion": 14.45667269,
        "meta_eccentricity": 0.00359904,
        "meta_inclination": 99.0019,
        "meta_ra_of_asc_node": 229.2427,
        "meta_arg_of_pericenter": 260.9773,
        "meta_mean_anomaly": 98.7343,
        "meta_ephemeris_type": 0,
        "meta_classification_type": "U",
        "meta_norad_cat_id": 36263,
        "meta_element_set_no": 999,
        "meta_rev_at_epoch": 88005,
        "meta_bstar": 0.0021495067,
        "meta_mean_motion_dot": 7.623e-05,
        "meta_mean_motion_ddot": 0,
        "tle_line1": "1 36263U 99025DWQ 25348.10883522  .00007623  00000+0  21495-2 0  9996",
        "tle_line2": "2 36263  99.0019 229.2427 0035990 260.9773  98.7343 14.45667269880053"
      },
      "geometry": {
        "type": "Point",
        "coordinates": [
          -126.79763303210012,
          0.9445396504124903
        ]
      }
    },
    {
      "type": "Feature",
      "properties": {
        "norad_id": 36267,
        "name": "FENGYUN 1C DEB",
        "group": "fengyun-1c-debris",
        "lat": -69.12838582980632,
        "lon": 95.85078979335266,
        "alt_km": 816.8619403136427,
        "timestamp": "2025-12-17T23:38:07.142226+00:00",
        "meta_object_name": "FENGYUN 1C DEB",
        "meta_object_id": "1999-025DWU",
        "meta_epoch": "2025-12-17T02:18:42.156000",
        "meta_mean_motion": 14.09111328,
        "meta_eccentricity": 0.0126413,
        "meta_inclination": 98.559,
        "meta_ra_of_asc_node": 298.2704,
        "meta_arg_of_pericenter": 197.9977,
        "meta_mean_anomaly": 227.0895,
        "meta_ephemeris_type": 0,
        "meta_classification_type": "U",
        "meta_norad_cat_id": 36267,
        "meta_element_set_no": 999,
        "meta_rev_at_epoch": 86591,
        "meta_bstar": 0.00083999853,
        "meta_mean_motion_dot": 1.528e-05,
        "meta_mean_motion_ddot": 0,
        "tle_line1": "1 36267U 99025DWU 25351.09632125  .00001528  00000+0  84000-3 0  9993",
        "tle_line2": "2 36267  98.5590 298.2704 0126413 197.9977 227.0895 14.09111328865912"
      },
      "geometry": {
        "type": "Point",
        "coordinates": [
          95.85078979335266,
          -69.12838582980632
        ]
      }
    }
  ]
}